[
    {
        "Altitude(m)": 702690.4568220925,
        "Argument of Periapsis(deg)": 0.0011390121186627068,
        "Eccentricity": 0.0,
        "Inclination(deg)": 45.0,
        "Latitude(deg)": 10.693648596850853,
        "Longitude(deg)": -70.87556222603617,
        "Mean Anomaly(deg)": -195.2102783352519,
        "RAAN(deg)": 219.9989248058542,
        "Satellite Name": "Constellation 1 978",
        "Satellite Number": 978,
        "Semi-Major Axis(m)": 7083131.272910544,
        "Time(s)": 19
    },
    {
        "Altitude(m)": 702690.9756602717,
        "Argument of Periapsis(deg)": 0.0011989601249081123,
        "Eccentricity": 0.0,
        "Inclination(deg)": 45.0,
        "Latitude(deg)": 10.651200521930598,
        "Longitude(deg)": -70.83528860774712,
        "Mean Anomaly(deg)": -195.14957719500202,
        "RAAN(deg)": 219.99886821668858,
        "Satellite Name": "Constellation 1 978",
        "Satellite Number": 978,
        "Semi-Major Axis(m)": 7083131.272910544,
        "Time(s)": 20
    },
    {
        "Altitude(m)": 702691.5138943496,
        "Argument of Periapsis(deg)": 0.001258908131153518,
        "Eccentricity": 0.0,
        "Inclination(deg)": 45.0,
        "Latitude(deg)": 10.60874609090858,
        "Longitude(deg)": -70.79502731043232,
        "Mean Anomaly(deg)": -195.0888760547521,
        "RAAN(deg)": 219.99881162752303,
        "Satellite Name": "Constellation 1 978",
        "Satellite Number": 978,
        "Semi-Major Axis(m)": 7083131.272910544,
        "Time(s)": 21
    },
    {
        "Altitude(m)": 702692.0715402608,
        "Argument of Periapsis(deg)": 0.0013188561373989236,
        "Eccentricity": 0.0,
        "Inclination(deg)": 45.0,
        "Latitude(deg)": 10.566285331638385,
        "Longitude(deg)": -70.75477845062439,
        "Mean Anomaly(deg)": -195.02817491450222,
        "RAAN(deg)": 219.99875503835747,
        "Satellite Name": "Constellation 1 978",
        "Satellite Number": 978,
        "Semi-Major Axis(m)": 7083131.272910544,
        "Time(s)": 22
    },
    {
        "Altitude(m)": 702692.6486138756,
        "Argument of Periapsis(deg)": 0.0013788041436443293,
        "Eccentricity": 0.0,
        "Inclination(deg)": 45.0,
        "Latitude(deg)": 10.523818271949924,
        "Longitude(deg)": -70.7145416405895,
        "Mean Anomaly(deg)": -194.96747377425237,
        "RAAN(deg)": 219.9986984491919,
        "Satellite Name": "Constellation 1 978",
        "Satellite Number": 978,
        "Semi-Major Axis(m)": 7083131.272910544,
        "Time(s)": 23
    },
    {
        "Altitude(m)": 702693.2451309622,
        "Argument of Periapsis(deg)": 0.001438752149889735,
        "Eccentricity": 0.0,
        "Inclination(deg)": 45.0,
        "Latitude(deg)": 10.481344939649409,
        "Longitude(deg)": -70.67431699690954,
        "Mean Anomaly(deg)": -194.90677263400238,
        "RAAN(deg)": 219.99864186002634,
        "Satellite Name": "Constellation 1 978",
        "Satellite Number": 978,
        "Semi-Major Axis(m)": 7083131.272910544,
        "Time(s)": 24
    },
    {
        "Altitude(m)": 702693.8611072197,
        "Argument of Periapsis(deg)": 0.0014987001561351404,
        "Eccentricity": 0.0,
        "Inclination(deg)": 45.0,
        "Latitude(deg)": 10.438865362519646,
        "Longitude(deg)": -70.63410446809392,
        "Mean Anomaly(deg)": -194.84607149375253,
        "RAAN(deg)": 219.9985852708608,
        "Satellite Name": "Constellation 1 978",
        "Satellite Number": 978,
        "Semi-Major Axis(m)": 7083131.272910544,
        "Time(s)": 25
    },
    {
        "Altitude(m)": 702694.4965582549,
        "Argument of Periapsis(deg)": 0.001558648162380546,
        "Eccentricity": 0.0,
        "Inclination(deg)": 45.0,
        "Latitude(deg)": 10.39637956831997,
        "Longitude(deg)": -70.59390400267647,
        "Mean Anomaly(deg)": -194.78537035350257,
        "RAAN(deg)": 219.99852868169518,
        "Satellite Name": "Constellation 1 978",
        "Satellite Number": 978,
        "Semi-Major Axis(m)": 7083131.272910544,
        "Time(s)": 26
    },
    {
        "Altitude(m)": 702695.1514996031,
        "Argument of Periapsis(deg)": 0.0016185961686259519,
        "Eccentricity": 0.0,
        "Inclination(deg)": 45.0,
        "Latitude(deg)": 10.35388758478658,
        "Longitude(deg)": -70.55371554921558,
        "Mean Anomaly(deg)": -194.7246692132527,
        "RAAN(deg)": 219.99847209252962,
        "Satellite Name": "Constellation 1 978",
        "Satellite Number": 978,
        "Semi-Major Axis(m)": 7083131.272910544,
        "Time(s)": 27
    },
    {
        "Altitude(m)": 702695.8259467027,
        "Argument of Periapsis(deg)": 0.0016785441748713573,
        "Eccentricity": 0.0,
        "Inclination(deg)": 45.0,
        "Latitude(deg)": 10.311389439632366,
        "Longitude(deg)": -70.5135390562938,
        "Mean Anomaly(deg)": -194.66396807300285,
        "RAAN(deg)": 219.99841550336404,
        "Satellite Name": "Constellation 1 978",
        "Satellite Number": 978,
        "Semi-Major Axis(m)": 7083131.272910544,
        "Time(s)": 28
    },
    {
        "Altitude(m)": 702696.5199149172,
        "Argument of Periapsis(deg)": 0.001738492181116763,
        "Eccentricity": 0.0,
        "Inclination(deg)": 45.0,
        "Latitude(deg)": 10.268885160547006,
        "Longitude(deg)": -70.47337447251782,
        "Mean Anomaly(deg)": -194.6032669327529,
        "RAAN(deg)": 219.9983589141985,
        "Satellite Name": "Constellation 1 978",
        "Satellite Number": 978,
        "Semi-Major Axis(m)": 7083131.272910544,
        "Time(s)": 29
    },
    {
        "Altitude(m)": 702697.233419525,
        "Argument of Periapsis(deg)": 0.0017984401873621684,
        "Eccentricity": 0.0,
        "Inclination(deg)": 45.0,
        "Latitude(deg)": 10.226374775197524,
        "Longitude(deg)": -70.43322191461593,
        "Mean Anomaly(deg)": -194.54256579250304,
        "RAAN(deg)": 219.99830232503294,
        "Satellite Name": "Constellation 1 978",
        "Satellite Number": 978,
        "Semi-Major Axis(m)": 7083131.272910544,
        "Time(s)": 30
    },
    {
        "Altitude(m)": 702697.9664757189,
        "Argument of Periapsis(deg)": 0.0018583881936075745,
        "Eccentricity": 0.0,
        "Inclination(deg)": 45.0,
        "Latitude(deg)": 10.183858311227866,
        "Longitude(deg)": -70.39308099504906,
        "Mean Anomaly(deg)": -194.48186465225314,
        "RAAN(deg)": 219.99824573586733,
        "Satellite Name": "Constellation 1 978",
        "Satellite Number": 978,
        "Semi-Major Axis(m)": 7083131.272910544,
        "Time(s)": 31
    },
    {
        "Altitude(m)": 702698.7190986125,
        "Argument of Periapsis(deg)": 0.0019183361998529795,
        "Eccentricity": 0.0,
        "Inclination(deg)": 45.0,
        "Latitude(deg)": 10.141335796259298,
        "Longitude(deg)": -70.35295183059345,
        "Mean Anomaly(deg)": -194.4211635120032,
        "RAAN(deg)": 219.99818914670178,
        "Satellite Name": "Constellation 1 978",
        "Satellite Number": 978,
        "Semi-Major Axis(m)": 7083131.272910544,
        "Time(s)": 32
    },
    {
        "Altitude(m)": 702699.4913032304,
        "Argument of Periapsis(deg)": 0.0019782842060983856,
        "Eccentricity": 0.0,
        "Inclination(deg)": 45.0,
        "Latitude(deg)": 10.09880725789026,
        "Longitude(deg)": -70.31283436995206,
        "Mean Anomaly(deg)": -194.36046237175333,
        "RAAN(deg)": 219.99813255753622,
        "Satellite Name": "Constellation 1 978",
        "Satellite Number": 978,
        "Semi-Major Axis(m)": 7083131.272910544,
        "Time(s)": 33
    },
    {
        "Altitude(m)": 702700.2831045177,
        "Argument of Periapsis(deg)": 0.0020382322123437906,
        "Eccentricity": 0.0,
        "Inclination(deg)": 45.0,
        "Latitude(deg)": 10.056272723696704,
        "Longitude(deg)": -70.27272856185179,
        "Mean Anomaly(deg)": -194.2997612315034,
        "RAAN(deg)": 219.99807596837064,
        "Satellite Name": "Constellation 1 978",
        "Satellite Number": 978,
        "Semi-Major Axis(m)": 7083131.272910544,
        "Time(s)": 34
    },
    {
        "Altitude(m)": 702701.0945173327,
        "Argument of Periapsis(deg)": 0.002098180218589197,
        "Eccentricity": 0.0,
        "Inclination(deg)": 45.0,
        "Latitude(deg)": 10.013732221232207,
        "Longitude(deg)": -70.23263435504346,
        "Mean Anomaly(deg)": -194.23906009125358,
        "RAAN(deg)": 219.9980193792051,
        "Satellite Name": "Constellation 1 978",
        "Satellite Number": 978,
        "Semi-Major Axis(m)": 7083131.272910544,
        "Time(s)": 35
    },
    {
        "Altitude(m)": 702701.9255564498,
        "Argument of Periapsis(deg)": 0.002158128224834602,
        "Eccentricity": 0.0,
        "Inclination(deg)": 45.0,
        "Latitude(deg)": 9.971185778027698,
        "Longitude(deg)": -70.19255169830126,
        "Mean Anomaly(deg)": -194.1783589510036,
        "RAAN(deg)": 219.99796279003948,
        "Satellite Name": "Constellation 1 978",
        "Satellite Number": 978,
        "Semi-Major Axis(m)": 7083131.272910544,
        "Time(s)": 36
    },
    {
        "Altitude(m)": 702702.7762365618,
        "Argument of Periapsis(deg)": 0.002218076231080008,
        "Eccentricity": 0.0,
        "Inclination(deg)": 45.0,
        "Latitude(deg)": 9.92863342159209,
        "Longitude(deg)": -70.15248070852027,
        "Mean Anomaly(deg)": -194.11765781075374,
        "RAAN(deg)": 219.99790620087393,
        "Satellite Name": "Constellation 1 978",
        "Satellite Number": 978,
        "Semi-Major Axis(m)": 7083131.272910544,
        "Time(s)": 37
    }
]